[{"OBJECT_NAME":"STARLINK-34361","OBJECT_ID":"2025-130N","EPOCH":"2026-03-09T10:26:50.063424","MEAN_MOTION":15.3021918,"ECCENTRICITY":9.235e-5,"INCLINATION":53.16,"RA_OF_ASC_NODE":89.7525,"ARG_OF_PERICENTER":79.2623,"MEAN_ANOMALY":280.8482,"EPHEMERIS_TYPE":0,"CLASSIFICATION_TYPE":"U","NORAD_CAT_ID":64450,"ELEMENT_SET_NO":999,"REV_AT_EPOCH":4183,"BSTAR":0.00079881741,"MEAN_MOTION_DOT":0.00023388,"MEAN_MOTION_DDOT":0},{"OBJECT_NAME":"NOAA 16 DEB","OBJECT_ID":"2000-055BK","EPOCH":"2026-03-09T02:17:10.174560","MEAN_MOTION":15.30191008,"ECCENTRICITY":0.00052528,"INCLINATION":98.9831,"RA_OF_ASC_NODE":305.6383,"ARG_OF_PERICENTER":26.64,"MEAN_ANOMALY":333.5104,"EPHEMERIS_TYPE":0,"CLASSIFICATION_TYPE":"U","NORAD_CAT_ID":41128,"ELEMENT_SET_NO":999,"REV_AT_EPOCH":53406,"BSTAR":0.017668961,"MEAN_MOTION_DOT":0.00549039,"MEAN_MOTION_DDOT":0}]
